NORAD_CAT_ID,OBJECT_NAME,OBJECT_TYPE,EPOCH,MEAN_MOTION,ECCENTRICITY,INCLINATION,RA_OF_ASC_NODE,ARG_OF_PERICENTER,MEAN_ANOMALY,BSTAR,MEAN_MOTION_DOT,MEAN_MOTION_DDOT,TLE_LINE0,TLE_LINE1,TLE_LINE2,SEMIMAJOR_AXIS,PERIOD,APOGEE,PERIGEE,DECAYED
51773.0,STARLINK-3624,PAYLOAD,2022-09-23 19:25:04,15.08833979,0.000202,53.2166,248.402,50.4665,309.6505,3.7426e-05,3.07e-06,0.0,0 STARLINK-3624,1 51773U 22017F   22266.80907629  .00000307  00000-0  37426-4 0  9990,2 51773  53.2166 248.4020 0002020  50.4665 309.6505 15.08833979 31957,6917.899,95.438,541.161,538.366,0.0
51773.0,STARLINK-3624,PAYLOAD,2022-09-24 04:57:22,15.0884801,0.0001983,53.2166,246.618,51.857,308.2601,4.216499999999999e-06,-2.21e-06,0.0,0 STARLINK-3624,1 51773U 22017F   22267.20651466 -.00000221  00000-0  42165-5 0  9993,2 51773  53.2166 246.6180 0001983  51.8570 308.2601 15.08848010 33474,6917.856,95.437,541.0930000000002,538.349,0.0
51773.0,STARLINK-3624,PAYLOAD,2022-09-24 11:18:55,15.08851081,0.0002056999999999,53.2166,245.4284,51.7673,308.3504,5.078e-05,5.2e-06,0.0,0 STARLINK-3624,1 51773U 22017F   22267.47147009  .00000520  00000-0  50780-4 0  9997,2 51773  53.2166 245.4284 0002057  51.7673 308.3504 15.08851081 32050,6917.847,95.437,541.135,538.289,0.0
51773.0,STARLINK-3624,PAYLOAD,2022-09-24 19:15:50,15.08854291,0.0002069,53.2166,243.9418,52.8724,307.2457,0.00012979,1.779e-05,0.0,0 STARLINK-3624,1 51773U 22017F   22267.80266340  .00001779  00000-0  12979-3 0  9998,2 51773  53.2166 243.9418 0002069  52.8724 307.2457 15.08854291 33562,6917.837,95.437,541.133,538.27,0.0
51773.0,STARLINK-3624,PAYLOAD,2022-09-25 04:48:09,15.08844498,0.0002078,53.2157,242.1572,53.5692,306.5492,7.8788e-05,9.66e-06,0.0,0 STARLINK-3624,1 51773U 22017F   22268.20011106  .00000966  00000-0  78788-4 0  9999,2 51773  53.2157 242.1572 0002078  53.5692 306.5492 15.08844498 33622,6917.8669999999975,95.437,541.169,538.294,0.0
51773.0,STARLINK-3624,PAYLOAD,2022-09-25 09:34:18,15.08848038,0.0002069,53.2157,241.2651,54.0269,306.0915,0.00012547,1.7100000000000002e-05,0.0,0 STARLINK-3624,1 51773U 22017F   22268.39882915  .00001710  00000-0  12547-3 0  9991,2 51773  53.2157 241.2651 0002069  54.0269 306.0915 15.08848038 32196,6917.856,95.437,541.1519999999998,538.29,0.0
51773.0,STARLINK-3624,PAYLOAD,2022-09-25 20:42:01,15.08841541,0.0002055,53.2157,239.1836,53.4706,306.6475,0.00012102,1.638e-05,0.0,0 STARLINK-3624,1 51773U 22017F   22268.86251168  .00001638  00000-0  12102-3 0  9999,2 51773  53.2157 239.1836 0002055  53.4706 306.6475 15.08841541 32268,6917.876,95.437,541.1619999999998,538.319,0.0
51773.0,STARLINK-3624,PAYLOAD,2022-09-26 07:49:42,15.08842203,0.0001994,53.2166,237.1023,53.5271,306.5904,5.1221e-05,5.27e-06,0.0,0 STARLINK-3624,1 51773U 22017F   22269.32618980  .00000527  00000-0  51221-4 0  9992,2 51773  53.2166 237.1023 0001994  53.5271 306.5904 15.08842203 33794,6917.874,95.437,541.118,538.359,0.0
51773.0,STARLINK-3624,PAYLOAD,2022-09-26 09:25:05,15.08842407,0.0002003,53.2166,236.805,54.073,306.0447,5.030100000000001e-05,5.12e-06,0.0,0 STARLINK-3624,1 51773U 22017F   22269.39242997  .00000512  00000-0  50301-4 0  9992,2 51773  53.2166 236.8050 0002003  54.0730 306.0447 15.08842407 32341,6917.873000000001,95.437,541.124,538.352,0.0
51773.0,STARLINK-3624,PAYLOAD,2022-09-26 18:57:25,15.08834159,0.0002000999999999,53.2166,235.0207,54.0182,306.0996,-7.9875e-05,-1.559e-05,0.0,0 STARLINK-3624,1 51773U 22017F   22269.78987907 -.00001559  00000-0 -79875-4 0  9993,2 51773  53.2166 235.0207 0002001  54.0182 306.0996 15.08834159 33867,6917.898,95.438,541.148,538.379,0.0
51773.0,STARLINK-3624,PAYLOAD,2022-09-26 20:32:48,15.08834171,0.0002056999999999,53.2165,234.7234,53.8104,306.3078,-6.518600000000001e-05,-1.325e-05,0.0,0 STARLINK-3624,1 51773U 22017F   22269.85611899 -.00001325  00000-0 -65186-4 0  9996,2 51773  53.2165 234.7234 0002057  53.8104 306.3078 15.08834171 32412,6917.898,95.438,541.186,538.34,0.0
51773.0,STARLINK-3624,PAYLOAD,2022-09-27 04:29:43,15.08840961,0.0002032,53.2167,233.2367,52.6558,307.4619,-4.9221e-05,-1.072e-05,0.0,0 STARLINK-3624,1 51773U 22017F   22270.18731401 -.00001072  00000-0 -49221-4 0  9997,2 51773  53.2167 233.2367 0002032  52.6558 307.4619 15.08840961 33922,6917.877,95.437,541.148,538.337,0.0
51773.0,STARLINK-3624,PAYLOAD,2022-09-27 09:15:53,15.08840307,0.0002021999999999,53.2166,232.3445,51.3052,308.812,4.421e-05,4.15e-06,0.0,0 STARLINK-3624,1 51773U 22017F   22270.38603198  .00000415  00000-0  44210-4 0  9991,2 51773  53.2166 232.3445 0002022  51.3052 308.8120 15.08840307 32499,6917.879,95.438,541.143,538.346,0.0
51773.0,STARLINK-3624,PAYLOAD,2022-09-27 20:23:34,15.08849421,0.0001996999999999,53.2166,230.263,52.1406,307.9766,0.00011151,1.487e-05,0.0,0 STARLINK-3624,1 51773U 22017F   22270.84970315  .00001487  00000-0  11151-3 0  9997,2 51773  53.2166 230.2630 0001997  52.1406 307.9766 15.08849421 34027,6917.852,95.437,541.0980000000002,538.335,0.0
51773.0,STARLINK-3624,PAYLOAD,2022-09-28 04:20:30,15.08840436,0.0001933,53.2167,228.7759,52.0949,308.0218,0.00011209,1.496e-05,0.0,0 STARLINK-3624,1 51773U 22017F   22271.18091024  .00001496  00000-0  11209-3 0  9990,2 51773  53.2167 228.7759 0001933  52.0949 308.0218 15.08840436 34079,6917.879,95.438,541.081,538.4069999999998,0.0
51773.0,STARLINK-3624,PAYLOAD,2022-09-28 12:17:27,15.08832618,0.0001945,53.2166,227.2892,50.8357,309.2807,-3.705e-07,-2.94e-06,0.0,0 STARLINK-3624,1 51773U 22017F   22271.51211848 -.00000294  00000-0 -37050-6 0  9997,2 51773  53.2166 227.2892 0001945  50.8357 309.2807 15.08832618 34128,6917.903,95.438,541.113,538.422,0.0
51773.0,STARLINK-3624,PAYLOAD,2022-09-29 02:35:56,15.08825288,0.0001776,53.2167,224.6132,50.3859,309.7290000000001,2.1379e-05,5.2e-07,0.0,0 STARLINK-3624,1 51773U 22017F   22272.10828848  .00000052  00000-0  21379-4 0  9992,2 51773  53.2167 224.6132 0001776  50.3859 309.7290 15.08825288 34217,6917.925,95.438,541.019,538.562,0.0
51773.0,STARLINK-3624,PAYLOAD,2022-09-29 10:32:51,15.08818798,0.0001695,53.2162,223.1261,49.5067,310.6073,-0.00021799,-3.754e-05,0.0,0 STARLINK-3624,1 51773U 22017F   22272.43948762 -.00003754  00000-0 -21799-3 0  9995,2 51773  53.2162 223.1261 0001695  49.5067 310.6073 15.08818798 32801,6917.945,95.439,540.9830000000002,538.638,0.0
51773.0,STARLINK-3624,PAYLOAD,2022-09-29 20:05:10,15.08823031,0.0001764,53.2161,221.342,47.7333,312.3808,-0.00016452,-2.904e-05,0.0,0 STARLINK-3624,1 51773U 22017F   22272.83693024 -.00002904  00000-0 -16452-3 0  9993,2 51773  53.2161 221.3420 0001764  47.7333 312.3808 15.08823031 32867,6917.932,95.439,541.018,538.577,0.0
51773.0,STARLINK-3624,PAYLOAD,2022-09-30 11:59:02,15.08837429,0.0001726,53.2163,218.3684,49.7027,310.4116,0.00017146,2.442e-05,0.0,0 STARLINK-3624,1 51773U 22017F   22273.49933066  .00002442  00000-0  17146-3 0  9995,2 51773  53.2163 218.3684 0001726  49.7027 310.4116 15.08837429 32965,6917.888000000001,95.438,540.947,538.559,0.0
51773.0,STARLINK-3624,PAYLOAD,2022-09-30 15:09:48,15.08837808,0.0001657,53.216,217.7739,49.4699,310.6437,0.00036589,5.539999999999999e-05,0.0,0 STARLINK-3624,1 51773U 22017F   22273.63181307  .00005540  00000-0  36589-3 0  9998,2 51773  53.2160 217.7739 0001657  49.4699 310.6437 15.08837808 34445,6917.887,95.438,540.898,538.606,0.0
51773.0,STARLINK-3624,PAYLOAD,2022-10-01 03:52:53,15.08863565,0.0001631,53.2155,215.3953,47.8984,312.2147,0.0011290999999999,0.00017739,0.0,0 STARLINK-3624,1 51773U 22017F   22274.16172975  .00017739  00000-0  11291-2 0  9993,2 51773  53.2155 215.3953 0001631  47.8984 312.2147 15.08863565 34526,6917.808000000001,95.436,540.802,538.545,0.0
51773.0,STARLINK-3624,PAYLOAD,2022-10-01 13:25:11,15.08868915,0.0001626999999999,53.2154,213.6109,47.3452,312.7677,0.00074114,0.00011536,0.0,0 STARLINK-3624,1 51773U 22017F   22274.55916296  .00011536  00000-0  74114-3 0  9991,2 51773  53.2154 213.6109 0001627  47.3452 312.7677 15.08868915 33121,6917.792,95.436,540.783,538.531,0.0
51773.0,STARLINK-3624,PAYLOAD,2022-10-02 03:43:39,15.08846138,0.0001878,53.2156,210.9348,43.9961,316.118,-0.00034381,-5.757e-05,0.0,0 STARLINK-3624,1 51773U 22017F   22275.15531643 -.00005757  00000-0 -34381-3 0  9999,2 51773  53.2156 210.9348 0001878  43.9961 316.1180 15.08846138 34674,6917.861999999999,95.437,541.026,538.427,0.0
51773.0,STARLINK-3624,PAYLOAD,2022-10-02 06:54:25,15.08849802,0.0001935,53.2153,210.3399,49.0098,311.1061,-0.00020275,-3.514e-05,0.0,0 STARLINK-3624,1 51773U 22017F   22275.28779732 -.00003514  00000-0 -20275-3 0  9992,2 51773  53.2153 210.3399 0001935  49.0098 311.1061 15.08849802 33238,6917.85,95.437,541.054,538.377,0.0
51773.0,STARLINK-3624,PAYLOAD,2022-10-02 13:15:58,15.08842425,0.0001909,53.2155,209.151,50.12300000000001,309.9929,-3.1484e-05,-7.89e-06,0.0,0 STARLINK-3624,1 51773U 22017F   22275.55275957 -.00000789  00000-0 -31484-4 0  9998,2 51773  53.2155 209.1510 0001909  50.1230 309.9929 15.08842425 33279,6917.873000000001,95.437,541.059,538.4169999999998,0.0
51773.0,STARLINK-3624,PAYLOAD,2022-10-03 05:09:50,15.08847361,0.0001871,53.2157,206.1766,50.7067,309.4091,0.0012395,0.00019498,0.0,0 STARLINK-3624,1 51773U 22017F   22276.21516285  .00019498  00000-0  12395-2 0  9997,2 51773  53.2157 206.1766 0001871  50.7067 309.4091 15.08847361 34835,6917.858,95.437,541.0169999999998,538.429,0.0
51773.0,STARLINK-3624,PAYLOAD,2022-10-04 01:49:49,15.08868757,0.0001713,53.216,202.3112,30.7419,329.3673,0.00066101,0.00010256,0.0,0 STARLINK-3624,1 51773U 22017F   22277.07626838  .00010256  00000-0  66101-3 0  9996,2 51773  53.2160 202.3112 0001713  30.7419 329.3673 15.08868757 34969,6917.792,95.436,540.8430000000002,538.472,0.0
51773.0,STARLINK-3624,PAYLOAD,2022-10-04 05:00:35,15.0886226,0.0001708,53.2163,201.7171,36.5536,323.5573,0.0004551,6.967e-05,0.0,0 STARLINK-3624,1 51773U 22017F   22277.20874771  .00006967  00000-0  45510-3 0  9997,2 51773  53.2163 201.7171 0001708  36.5536 323.5573 15.08862260 34988,6917.812,95.436,540.859,538.496,0.0
